COSMOS 2564 (761)       
1 54377U 22161A   25334.27504007  .00000092  00000+0  00000+0 0  9999
2 54377  64.7376 199.3131 0008753 206.7258 153.3182  2.13101973 23398
COSMOS 2569 (703K)      
1 57517U 23114A   25334.28846822 -.00000004  00000+0  00000+0 0  9996
2 57517  65.1875  79.3343 0010036 287.0032  72.8896  2.13103855 18029
COSMOS 2584 (704K)      
1 63130U 25042A   25330.42095954  .00000018  00000+0  00000+0 0  9994
2 63130  64.9668  79.7019 0007521 212.3772 147.5850  2.13103062  5728
COSMOS 2596 (708K)      
1 65590U 25206B   25334.08977572 -.00000021  00000+0  00000+0 0  9994
2 65590  64.7512 321.9152 0014079 304.6953 108.4937  2.13100321  1664
